[{"OBJECT_NAME":"STARLINK-5731","OBJECT_ID":"2023-083BA","EPOCH":"2026-03-09T08:32:43.041408","MEAN_MOTION":15.02773384,"ECCENTRICITY":0.0004484,"INCLINATION":43.0043,"RA_OF_ASC_NODE":70.2888,"ARG_OF_PERICENTER":152.1255,"MEAN_ANOMALY":207.9829,"EPHEMERIS_TYPE":0,"CLASSIFICATION_TYPE":"U","NORAD_CAT_ID":56924,"ELEMENT_SET_NO":999,"REV_AT_EPOCH":15188,"BSTAR":0.0021362646,"MEAN_MOTION_DOT":0.0002896,"MEAN_MOTION_DDOT":0},{"OBJECT_NAME":"UNKNOWN","OBJECT_ID":"","EPOCH":"2026-03-09T23:24:41.597280","MEAN_MOTION":14.71188189,"ECCENTRICITY":0.01426246,"INCLINATION":88.7425,"RA_OF_ASC_NODE":262.0534,"ARG_OF_PERICENTER":168.9683,"MEAN_ANOMALY":191.4722,"EPHEMERIS_TYPE":0,"CLASSIFICATION_TYPE":"U","NORAD_CAT_ID":270413,"ELEMENT_SET_NO":999,"REV_AT_EPOCH":8470,"BSTAR":0.00084093495,"MEAN_MOTION_DOT":6.097e-5,"MEAN_MOTION_DDOT":0}]
